{"fetched_at":"2026-07-15T17:46:48.171Z","source":"https://celestrak.org/NORAD/elements/gp.php?GROUP=planet&FORMAT=JSON","constellation":"skysat","records":[{"OBJECT_NAME":"SKYSAT-A","OBJECT_ID":"2013-066C","EPOCH":"2026-07-15T02:23:29.622624","CLASSIFICATION_TYPE":"U","MEAN_MOTION":15.1311517,"ECCENTRICITY":0.0020508,"INCLINATION":97.3805,"RA_OF_ASC_NODE":244.6073,"ARG_OF_PERICENTER":213.8194,"MEAN_ANOMALY":146.1731,"EPHEMERIS_TYPE":0,"NORAD_CAT_ID":39418,"ELEMENT_SET_NO":999,"REV_AT_EPOCH":69270,"BSTAR":0.000089294,"MEAN_MOTION_DOT":0.00001524,"MEAN_MOTION_DDOT":0},{"OBJECT_NAME":"SKYSAT-B","OBJECT_ID":"2014-037D","EPOCH":"2026-07-14T21:30:30.430656","CLASSIFICATION_TYPE":"U","MEAN_MOTION":14.88091619,"ECCENTRICITY":0.0005536,"INCLINATION":98.3853,"RA_OF_ASC_NODE":156.4444,"ARG_OF_PERICENTER":173.5386,"MEAN_ANOMALY":186.5901,"EPHEMERIS_TYPE":0,"NORAD_CAT_ID":40072,"ELEMENT_SET_NO":999,"REV_AT_EPOCH":65008,"BSTAR":0.000072253,"MEAN_MOTION_DOT":0.00000603,"MEAN_MOTION_DDOT":0},{"OBJECT_NAME":"SKYSAT-C1","OBJECT_ID":"2016-040C","EPOCH":"2026-07-15T00:35:07.207872","CLASSIFICATION_TYPE":"U","MEAN_MOTION":15.36746159,"ECCENTRICITY":0.0000285,"INCLINATION":96.9548,"RA_OF_ASC_NODE":226.2409,"ARG_OF_PERICENTER":314.5309,"MEAN_ANOMALY":45.5913,"EPHEMERIS_TYPE":0,"NORAD_CAT_ID":41601,"ELEMENT_SET_NO":999,"REV_AT_EPOCH":56214,"BSTAR":0.00014384,"MEAN_MOTION_DOT":0.00005088,"MEAN_MOTION_DDOT":0},{"OBJECT_NAME":"SKYSAT-C4","OBJECT_ID":"2016-058B","EPOCH":"2026-07-15T01:05:17.090016","CLASSIFICATION_TYPE":"U","MEAN_MOTION":15.49433812,"ECCENTRICITY":0.0003463,"INCLINATION":96.916,"RA_OF_ASC_NODE":216.6654,"ARG_OF_PERICENTER":118.3684,"MEAN_ANOMALY":241.7918,"EPHEMERIS_TYPE":0,"NORAD_CAT_ID":41771,"ELEMENT_SET_NO":999,"REV_AT_EPOCH":54978,"BSTAR":0.00019415,"MEAN_MOTION_DOT":0.00010582,"MEAN_MOTION_DDOT":0},{"OBJECT_NAME":"SKYSAT-C5","OBJECT_ID":"2016-058C","EPOCH":"2026-07-15T01:56:20.855616","CLASSIFICATION_TYPE":"U","MEAN_MOTION":15.33718331,"ECCENTRICITY":0.0002531,"INCLINATION":97.0454,"RA_OF_ASC_NODE":235.4703,"ARG_OF_PERICENTER":160.8664,"MEAN_ANOMALY":199.2675,"EPHEMERIS_TYPE":0,"NORAD_CAT_ID":41772,"ELEMENT_SET_NO":999,"REV_AT_EPOCH":54802,"BSTAR":0.00013099,"MEAN_MOTION_DOT":0.00004197,"MEAN_MOTION_DDOT":0},{"OBJECT_NAME":"SKYSAT-C2","OBJECT_ID":"2016-058D","EPOCH":"2026-07-15T00:38:38.302944","CLASSIFICATION_TYPE":"U","MEAN_MOTION":15.42678065,"ECCENTRICITY":0.0001519,"INCLINATION":97.0156,"RA_OF_ASC_NODE":217.0836,"ARG_OF_PERICENTER":354.7019,"MEAN_ANOMALY":5.4213,"EPHEMERIS_TYPE":0,"NORAD_CAT_ID":41773,"ELEMENT_SET_NO":999,"REV_AT_EPOCH":54934,"BSTAR":0.00016515,"MEAN_MOTION_DOT":0.00007118,"MEAN_MOTION_DDOT":0},{"OBJECT_NAME":"SKYSAT-C3","OBJECT_ID":"2016-058E","EPOCH":"2026-07-15T00:59:04.070976","CLASSIFICATION_TYPE":"U","MEAN_MOTION":15.53702651,"ECCENTRICITY":0.0002516,"INCLINATION":96.8991,"RA_OF_ASC_NODE":225.8356,"ARG_OF_PERICENTER":132.046,"MEAN_ANOMALY":228.1009,"EPHEMERIS_TYPE":0,"NORAD_CAT_ID":41774,"ELEMENT_SET_NO":999,"REV_AT_EPOCH":55043,"BSTAR":0.00023177,"MEAN_MOTION_DOT":0.00014739,"MEAN_MOTION_DDOT":0},{"OBJECT_NAME":"SKYSAT-C11","OBJECT_ID":"2017-068A","EPOCH":"2026-07-14T23:38:29.969376","CLASSIFICATION_TYPE":"U","MEAN_MOTION":15.59315544,"ECCENTRICITY":0.0001121,"INCLINATION":97.4376,"RA_OF_ASC_NODE":346.0599,"ARG_OF_PERICENTER":159.0232,"MEAN_ANOMALY":201.107,"EPHEMERIS_TYPE":0,"NORAD_CAT_ID":42987,"ELEMENT_SET_NO":999,"REV_AT_EPOCH":48757,"BSTAR":0.00022641,"MEAN_MOTION_DOT":0.00017721,"MEAN_MOTION_DDOT":0},{"OBJECT_NAME":"SKYSAT-C10","OBJECT_ID":"2017-068B","EPOCH":"2026-07-14T22:25:48.467136","CLASSIFICATION_TYPE":"U","MEAN_MOTION":15.35113231,"ECCENTRICITY":0.0001434,"INCLINATION":97.4538,"RA_OF_ASC_NODE":333.0656,"ARG_OF_PERICENTER":108.1466,"MEAN_ANOMALY":251.9934,"EPHEMERIS_TYPE":0,"NORAD_CAT_ID":42988,"ELEMENT_SET_NO":999,"REV_AT_EPOCH":48661,"BSTAR":0.00018097,"MEAN_MOTION_DOT":0.00006084,"MEAN_MOTION_DDOT":0},{"OBJECT_NAME":"SKYSAT-C9","OBJECT_ID":"2017-068C","EPOCH":"2026-07-14T21:14:41.185824","CLASSIFICATION_TYPE":"U","MEAN_MOTION":15.42209004,"ECCENTRICITY":0.0008692,"INCLINATION":97.4457,"RA_OF_ASC_NODE":334.2191,"ARG_OF_PERICENTER":45.8055,"MEAN_ANOMALY":314.3904,"EPHEMERIS_TYPE":0,"NORAD_CAT_ID":42989,"ELEMENT_SET_NO":999,"REV_AT_EPOCH":48702,"BSTAR":0.00017532,"MEAN_MOTION_DOT":0.00007445,"MEAN_MOTION_DDOT":0},{"OBJECT_NAME":"SKYSAT-C8","OBJECT_ID":"2017-068D","EPOCH":"2026-07-14T22:16:50.913984","CLASSIFICATION_TYPE":"U","MEAN_MOTION":15.37487916,"ECCENTRICITY":0.000123,"INCLINATION":97.4553,"RA_OF_ASC_NODE":332.966,"ARG_OF_PERICENTER":103.7859,"MEAN_ANOMALY":256.3522,"EPHEMERIS_TYPE":0,"NORAD_CAT_ID":42990,"ELEMENT_SET_NO":999,"REV_AT_EPOCH":48657,"BSTAR":0.00016522,"MEAN_MOTION_DOT":0.0000599,"MEAN_MOTION_DDOT":0},{"OBJECT_NAME":"SKYSAT-C7","OBJECT_ID":"2017-068E","EPOCH":"2026-07-14T22:08:53.571264","CLASSIFICATION_TYPE":"U","MEAN_MOTION":15.37438463,"ECCENTRICITY":0.0005758,"INCLINATION":97.4566,"RA_OF_ASC_NODE":333.9519,"ARG_OF_PERICENTER":22.1951,"MEAN_ANOMALY":337.9541,"EPHEMERIS_TYPE":0,"NORAD_CAT_ID":42991,"ELEMENT_SET_NO":999,"REV_AT_EPOCH":48663,"BSTAR":0.00016211,"MEAN_MOTION_DOT":0.00005868,"MEAN_MOTION_DDOT":0},{"OBJECT_NAME":"SKYSAT-C6","OBJECT_ID":"2017-068F","EPOCH":"2026-07-14T22:22:15.649248","CLASSIFICATION_TYPE":"U","MEAN_MOTION":15.34166717,"ECCENTRICITY":0.0005128,"INCLINATION":97.4603,"RA_OF_ASC_NODE":333.8162,"ARG_OF_PERICENTER":90.1759,"MEAN_ANOMALY":270.0071,"EPHEMERIS_TYPE":0,"NORAD_CAT_ID":42992,"ELEMENT_SET_NO":999,"REV_AT_EPOCH":48657,"BSTAR":0.00015855,"MEAN_MOTION_DOT":0.00005163,"MEAN_MOTION_DDOT":0},{"OBJECT_NAME":"SKYSAT-C12","OBJECT_ID":"2018-099AR","EPOCH":"2026-07-15T02:59:43.033632","CLASSIFICATION_TYPE":"U","MEAN_MOTION":15.49785376,"ECCENTRICITY":0.0005349,"INCLINATION":96.925,"RA_OF_ASC_NODE":218.2529,"ARG_OF_PERICENTER":70.4803,"MEAN_ANOMALY":289.7027,"EPHEMERIS_TYPE":0,"NORAD_CAT_ID":43797,"ELEMENT_SET_NO":999,"REV_AT_EPOCH":42618,"BSTAR":0.00019658,"MEAN_MOTION_DOT":0.00010853,"MEAN_MOTION_DDOT":0}]}
